{
    "messageCode": "MsgGetPasses",
    "startTime": "2018-09-16T00:00:00",
    "stopTime": "2018-09-21T00:00:00",
    "outputFile": "passes.txt",
    "outputType" : "1",
    "satelliteName":  "AAUSAT-2",
    "tleLine1": "1 32788U 08021F   18257.61115134 +.00000824 +00000-0 +81327-4 0  9993",
    "tleLine2": "2 32788 097.5175 280.3733 0013116 054.3041 305.9398 14.94445554563432",
    "gsLatitude": 41.00,
    "gsLongitude": -4.00,
    "gsAltitude": 700
}

               

